CS2                     
1 49262U 21088C   26068.73485932  .00018033  00000+0  56178-3 0  9999
2 49262  97.3928 134.2907 0011637  82.3491 277.9072 15.33255930245263
STARLINK-35425          
1 65874U 25223W   26068.88362698  .00032871  00000+0  11164-2 0  9991
2 65874  53.1607 293.3930 0000546 104.8489 255.2572 15.30220177 24239
